{"type": "FeatureCollection", "features": [ {"type": "Feature", "properties": {"norad_id": 37867, "name": "COSMOS 2476 (744)", "group": "gnss", "lat": 57.03556908515841, "lon": -146.51790144015558, "alt_km": 19156.342229396752, "timestamp": "2025-12-19T20:43:00.327720+00:00", "meta": {"OBJECT_NAME": "COSMOS 2476 (744)", "OBJECT_ID": "2011-064A", "EPOCH": "2025-12-19T06:05:26.552256", "MEAN_MOTION": 2.13103916, "ECCENTRICITY": 0.00243207, "INCLINATION": 65.1662, "RA_OF_ASC_NODE": 78.9509, "ARG_OF_PERICENTER": 234.6548, "MEAN_ANOMALY": 130.4776, "EPHEMERIS_TYPE": 0, "CLASSIFICATION_TYPE": "U", "NORAD_CAT_ID": 37867, "ELEMENT_SET_NO": 999, "REV_AT_EPOCH": 10993, "BSTAR": 0, "MEAN_MOTION_DOT": -3e-07, "MEAN_MOTION_DDOT": 0}, "tle": {"line1": "1 37867U 11064A   25353.25377954 -.00000030  00000+0  00000+0 0  9995", "line2": "2 37867  65.1662  78.9509 0024320 234.6548 130.4776  2.13103916109936"}}, "geometry": {"type": "Point", "coordinates": [-146.51790144015558, 57.03556908515841]}}, {"type": "Feature", "properties": {"norad_id": 37868, "name": "COSMOS 2477 (745)", "group": "gnss", "lat": -56.18212536145927, "lon": 35.403783716588606, "alt_km": 19108.003101452516, "timestamp": "2025-12-19T20:43:00.327733+00:00", "meta": {"OBJECT_NAME": "COSMOS 2477 (745)", "OBJECT_ID": "2011-064B", "EPOCH": "2025-12-18T12:02:16.818720", "MEAN_MOTION": 2.13102921, "ECCENTRICITY": 0.00212144, "INCLINATION": 65.1723, "RA_OF_ASC_NODE": 79.0538, "ARG_OF_PERICENTER": 234.8854, "MEAN_ANOMALY": 94.0943, "EPHEMERIS_TYPE": 0, "CLASSIFICATION_TYPE": "U", "NORAD_CAT_ID": 37868, "ELEMENT_SET_NO": 999, "REV_AT_EPOCH": 10990, "BSTAR": 0, "MEAN_MOTION_DOT": -3.8e-07, "MEAN_MOTION_DDOT": 0}, "tle": {"line1": "1 37868U 11064B   25352.50158355 -.00000038  00000+0  00000+0 0  9993", "line2": "2 37868  65.1723  79.0538 0021214 234.8854  94.0943  2.13102921109903"}}, "geometry": {"type": "Point", "coordinates": [35.403783716588606, -56.18212536145927]}}, {"type": "Feature", "properties": {"norad_id": 37869, "name": "COSMOS 2475 (743)", "group": "gnss", "lat": -58.24257828211766, "lon": -52.688991000070196, "alt_km": 19068.80092486365, "timestamp": "2025-12-19T20:43:00.327746+00:00", "meta": {"OBJECT_NAME": "COSMOS 2475 (743)", "OBJECT_ID": "2011-064C", "EPOCH": "2025-12-18T05:19:14.657088", "MEAN_MOTION": 2.13101609, "ECCENTRICITY": 0.0026433, "INCLINATION": 65.1789, "RA_OF_ASC_NODE": 79.0834, "ARG_OF_PERICENTER": 248.8457, "MEAN_ANOMALY": 181.3342, "EPHEMERIS_TYPE": 0, "CLASSIFICATION_TYPE": "U", "NORAD_CAT_ID": 37869, "ELEMENT_SET_NO": 999, "REV_AT_EPOCH": 10991, "BSTAR": 0, "MEAN_MOTION_DOT": -4.1e-07, "MEAN_MOTION_DDOT": 0}, "tle": {"line1": "1 37869U 11064C   25352.22169742 -.00000041  00000+0  00000+0 0  9999", "line2": "2 37869  65.1789  79.0834 0026433 248.8457 181.3342  2.13101609109913"}}, "geometry": {"type": "Point", "coordinates": [-52.688991000070196, -58.24257828211766]}}, {"type": "Feature", "properties": {"norad_id": 37948, "name": "BEIDOU-2 IGSO-5 (C10)", "group": "gnss", "lat": -27.899990799926847, "lon": 122.16778877035527, "alt_km": 35323.01333075885, "timestamp": "2025-12-19T20:43:00.327758+00:00", "meta": {"OBJECT_NAME": "BEIDOU-2 IGSO-5 (C10)", "OBJECT_ID": "2011-073A", "EPOCH": "2025-12-18T16:23:51.533376", "MEAN_MOTION": 1.00290152, "ECCENTRICITY": 0.01099443, "INCLINATION": 48.0091, "RA_OF_ASC_NODE": 273.7856, "ARG_OF_PERICENTER": 222.3449, "MEAN_ANOMALY": 290.7013, "EPHEMERIS_TYPE": 0, "CLASSIFICATION_TYPE": "U", "NORAD_CAT_ID": 37948, "ELEMENT_SET_NO": 999, "REV_AT_EPOCH": 5132, "BSTAR": 0, "MEAN_MOTION_DOT": -1.7e-06, "MEAN_MOTION_DDOT": 0}, "tle": {"line1": "1 37948U 11073A   25352.68323534 -.00000170  00000+0  00000+0 0  9991", "line2": "2 37948  48.0091 273.7856 0109944 222.3449 290.7013  1.00290152 51329"}}, "geometry": {"type": "Point", "coordinates": [122.16778877035527, -27.899990799926847]}}, {"type": "Feature", "properties": {"norad_id": 37951, "name": "LUCH 5A (SDCM/PRN 140)", "group": "gnss", "lat": 6.3396240799162715, "lon": -153.2199079687231, "alt_km": 35774.977241650886, "timestamp": "2025-12-19T20:43:00.327784+00:00", "meta": {"OBJECT_NAME": "LUCH 5A (SDCM/PRN 140)", "OBJECT_ID": "2011-074B", "EPOCH": "2025-12-18T22:39:00.862272", "MEAN_MOTION": 1.00269042, "ECCENTRICITY": 0.00050851, "INCLINATION": 8.2948, "RA_OF_ASC_NODE": 76.4925, "ARG_OF_PERICENTER": 189.1634, "MEAN_ANOMALY": 328.979, "EPHEMERIS_TYPE": 0, "CLASSIFICATION_TYPE": "U", "NORAD_CAT_ID": 37951, "ELEMENT_SET_NO": 999, "REV_AT_EPOCH": 5124, "BSTAR": 0, "MEAN_MOTION_DOT": -3.1e-07, "MEAN_MOTION_DDOT": 0}, "tle": {"line1": "1 37951U 11074B   25352.94375998 -.00000031  00000+0  00000+0 0  9992", "line2": "2 37951   8.2948  76.4925 0005085 189.1634 328.9790  1.00269042 51245"}}, "geometry": {"type": "Point", "coordinates": [-153.2199079687231, 6.3396240799162715]}}, {"type": "Feature", "properties": {"norad_id": 38091, "name": "BEIDOU-2 G5 (C05)", "group": "gnss", "lat": 1.4744546698266896, "lon": 98.25239748147311, "alt_km": 35836.98967863298, "timestamp": "2025-12-19T20:43:00.327798+00:00", "meta": {"OBJECT_NAME": "BEIDOU-2 G5 (C05)", "OBJECT_ID": "2012-008A", "EPOCH": "2025-12-19T03:16:16.701024", "MEAN_MOTION": 1.00268437, "ECCENTRICITY": 0.00129619, "INCLINATION": 3.1246, "RA_OF_ASC_NODE": 70.6885, "ARG_OF_PERICENTER": 231.3225, "MEAN_ANOMALY": 253.8349, "EPHEMERIS_TYPE": 0, "CLASSIFICATION_TYPE": "U", "NORAD_CAT_ID": 38091, "ELEMENT_SET_NO": 999, "REV_AT_EPOCH": 5056, "BSTAR": 0, "MEAN_MOTION_DOT": 7.9e-07, "MEAN_MOTION_DDOT": 0}, "tle": {"line1": "1 38091U 12008A   25353.13630441  .00000079  00000+0  00000+0 0  9996", "line2": "2 38091   3.1246  70.6885 0012961 231.3225 253.8349  1.00268437 50561"}}, "geometry": {"type": "Point", "coordinates": [98.25239748147311, 1.4744546698266896]}}, {"type": "Feature", "properties": {"norad_id": 38250, "name": "BEIDOU-2 M3 (C11)", "group": "gnss", "lat": 10.280252315881263, "lon": -42.05745143613297, "alt_km": 21535.79440267509, "timestamp": "2025-12-19T20:43:00.327814+00:00", "meta": {"OBJECT_NAME": "BEIDOU-2 M3 (C11)", "OBJECT_ID": "2012-018A", "EPOCH": "2025-12-18T05:36:36.842400", "MEAN_MOTION": 1.86230021, "ECCENTRICITY": 0.00242148, "INCLINATION": 55.9152, "RA_OF_ASC_NODE": 310.9725, "ARG_OF_PERICENTER": 274.7921, "MEAN_ANOMALY": 84.917, "EPHEMERIS_TYPE": 0, "CLASSIFICATION_TYPE": "U", "NORAD_CAT_ID": 38250, "ELEMENT_SET_NO": 999, "REV_AT_EPOCH": 9257, "BSTAR": 0, "MEAN_MOTION_DOT": -8.6e-07, "MEAN_MOTION_DDOT": 0}, "tle": {"line1": "1 38250U 12018A   25352.23375975 -.00000086  00000+0  00000+0 0  9991", "line2": "2 38250  55.9152 310.9725 0024214 274.7921  84.9170  1.86230021 92574"}}, "geometry": {"type": "Point", "coordinates": [-42.05745143613297, 10.280252315881263]}}, {"type": "Feature", "properties": {"norad_id": 38251, "name": "BEIDOU-2 M4 (C12)", "group": "gnss", "lat": 44.51911446482959, "lon": -7.983396839050705, "alt_km": 21555.46153665176, "timestamp": "2025-12-19T20:43:00.327826+00:00", "meta": {"OBJECT_NAME": "BEIDOU-2 M4 (C12)", "OBJECT_ID": "2012-018B", "EPOCH": "2025-12-19T05:45:13.599936", "MEAN_MOTION": 1.86229684, "ECCENTRICITY": 0.00153935, "INCLINATION": 55.8157, "RA_OF_ASC_NODE": 310.167, "ARG_OF_PERICENTER": 278.4783, "MEAN_ANOMALY": 81.3347, "EPHEMERIS_TYPE": 0, "CLASSIFICATION_TYPE": "U", "NORAD_CAT_ID": 38251, "ELEMENT_SET_NO": 999, "REV_AT_EPOCH": 9259, "BSTAR": 0, "MEAN_MOTION_DOT": -7.8e-07, "MEAN_MOTION_DDOT": 0}, "tle": {"line1": "1 38251U 12018B   25353.23974074 -.00000078  00000+0  00000+0 0  9999", "line2": "2 38251  55.8157 310.1670 0015393 278.4783  81.3347  1.86229684 92597"}}, "geometry": {"type": "Point", "coordinates": [-7.983396839050705, 44.51911446482959]}}, {"type": "Feature", "properties": {"norad_id": 38652, "name": "SES-5 (EGNOS/PRN 136)", "group": "gnss", "lat": 0.0721741545151986, "lon": 44.42687887457651, "alt_km": 35792.46295098386, "timestamp": "2025-12-19T20:43:00.327838+00:00", "meta": {"OBJECT_NAME": "SES-5 (EGNOS/PRN 136)", "OBJECT_ID": "2012-036A", "EPOCH": "2025-12-18T13:19:11.535168", "MEAN_MOTION": 1.00270056, "ECCENTRICITY": 0.00018187, "INCLINATION": 0.0555, "RA_OF_ASC_NODE": 307.3887, "ARG_OF_PERICENTER": 315.9373, "MEAN_ANOMALY": 28.8626, "EPHEMERIS_TYPE": 0, "CLASSIFICATION_TYPE": "U", "NORAD_CAT_ID": 38652, "ELEMENT_SET_NO": 999, "REV_AT_EPOCH": 4264, "BSTAR": 0, "MEAN_MOTION_DOT": 5.9e-07, "MEAN_MOTION_DDOT": 0}, "tle": {"line1": "1 38652U 12036A   25352.55499462  .00000059  00000+0  00000+0 0  9999", "line2": "2 38652   0.0555 307.3887 0001818 315.9373  28.8626  1.00270056 42645"}}, "geometry": {"type": "Point", "coordinates": [44.42687887457651, 0.0721741545151986]}}, {"type": "Feature", "properties": {"norad_id": 38775, "name": "BEIDOU-2 M6 (C14)", "group": "gnss", "lat": -52.266614763460744, "lon": -52.02349219830252, "alt_km": 21534.771563358932, "timestamp": "2025-12-19T20:43:00.327850+00:00", "meta": {"OBJECT_NAME": "BEIDOU-2 M6 (C14)", "OBJECT_ID": "2012-050B", "EPOCH": "2025-12-18T09:55:40.044288", "MEAN_MOTION": 1.8623091, "ECCENTRICITY": 0.00113703, "INCLINATION": 56.3831, "RA_OF_ASC_NODE": 68.8791, "ARG_OF_PERICENTER": 343.3858, "MEAN_ANOMALY": 16.6071, "EPHEMERIS_TYPE": 0, "CLASSIFICATION_TYPE": "U", "NORAD_CAT_ID": 38775, "ELEMENT_SET_NO": 999, "REV_AT_EPOCH": 8994, "BSTAR": 0, "MEAN_MOTION_DOT": -6.3e-07, "MEAN_MOTION_DDOT": 0}, "tle": {"line1": "1 38775U 12050B   25352.41365792 -.00000063  00000+0  00000+0 0  9990", "line2": "2 38775  56.3831  68.8791 0011370 343.3858  16.6071  1.86230910 89944"}}, "geometry": {"type": "Point", "coordinates": [-52.02349219830252, -52.266614763460744]}}]}